{
  "norad_id": 58669,
  "name": "STARLINK-31128",
  "history": [
    {
      "epoch": "2026-04-14T16:55:19.701696Z",
      "apogee_km": 484.2213419100126,
      "perigee_km": 481.8967686864771,
      "latitude_deg": 1.2377619219683133e-05,
      "longitude_deg": 145.09184263460665,
      "height_km": 482.89749753101285,
      "semi_major_axis_km": 6861.196055298245,
      "eccentricity": 0.0001694,
      "inclination_deg": 43.004,
      "raan_deg": 241.8016,
      "arg_perigee_deg": 266.9882,
      "mean_anomaly_deg": 93.0776,
      "mean_motion_rev_day": 15.27576674
    },
    {
      "epoch": "2026-04-15T16:27:40.358592Z",
      "apogee_km": 484.18586645299,
      "perigee_km": 481.93676564498855,
      "latitude_deg": -1.792366117896282e-06,
      "longitude_deg": 145.49974363330176,
      "height_km": 482.8873559293394,
      "semi_major_axis_km": 6861.198316048989,
      "eccentricity": 0.0001639,
      "inclination_deg": 43.0039,
      "raan_deg": 236.2623,
      "arg_perigee_deg": 267.5171,
      "mean_anomaly_deg": 92.5493,
      "mean_motion_rev_day": 15.27575919
    },
    {
      "epoch": "2026-04-16T16:00:01.143360Z",
      "apogee_km": 484.1877585796292,
      "perigee_km": 481.9276810389247,
      "latitude_deg": 1.7669049821227174e-05,
      "longitude_deg": 145.9073463056113,
      "height_km": 482.93895837934457,
      "semi_major_axis_km": 6861.194719809277,
      "eccentricity": 0.0001647,
      "inclination_deg": 43.0038,
      "raan_deg": 230.7232,
      "arg_perigee_deg": 264.7228,
      "mean_anomaly_deg": 95.3436,
      "mean_motion_rev_day": 15.2757712
    },
    {
      "epoch": "2026-04-17T15:32:21.919488Z",
      "apogee_km": 484.1264781150112,
      "perigee_km": 481.9853742504665,
      "latitude_deg": -1.6845924815027587e-05,
      "longitude_deg": 146.31532701115222,
      "height_km": 482.90333501573906,
      "semi_major_axis_km": 6861.192926182738,
      "eccentricity": 0.00015603,
      "inclination_deg": 43.0031,
      "raan_deg": 225.1845,
      "arg_perigee_deg": 266.238,
      "mean_anomaly_deg": 93.8293,
      "mean_motion_rev_day": 15.27577719
    },
    {
      "epoch": "2026-04-18T15:04:42.229056Z",
      "apogee_km": 484.0762758849023,
      "perigee_km": 482.00694441608175,
      "latitude_deg": 4.166991606355505e-05,
      "longitude_deg": 146.72395526372745,
      "height_km": 482.9560219902602,
      "semi_major_axis_km": 6861.178610150492,
      "eccentricity": 0.0001508,
      "inclination_deg": 43.0028,
      "raan_deg": 219.6444,
      "arg_perigee_deg": 262.3719,
      "mean_anomaly_deg": 97.6962,
      "mean_motion_rev_day": 15.275825
    },
    {
      "epoch": "2026-04-19T14:37:05.452032Z",
      "apogee_km": 483.75551484895095,
      "perigee_km": 482.4834378982314,
      "latitude_deg": 6.276649809087331e-06,
      "longitude_deg": 147.12080976997495,
      "height_km": 482.9578683088414,
      "semi_major_axis_km": 6861.256476373591,
      "eccentricity": 9.27e-05,
      "inclination_deg": 43.002,
      "raan_deg": 214.1048,
      "arg_perigee_deg": 264.4164,
      "mean_anomaly_deg": 95.6582,
      "mean_motion_rev_day": 15.27556496
    },
    {
      "epoch": "2026-04-20T00:02:02.310432Z",
      "apogee_km": 483.6579943897041,
      "perigee_km": 482.5648602902602,
      "latitude_deg": -3.084690947475764e-05,
      "longitude_deg": 3.280266765471075,
      "height_km": 483.0877527757433,
      "semi_major_axis_km": 6861.248427339982,
      "eccentricity": 7.966e-05,
      "inclination_deg": 42.9991,
      "raan_deg": 211.8879,
      "arg_perigee_deg": 111.6708,
      "mean_anomaly_deg": 248.4228,
      "mean_motion_rev_day": 15.27559184
    },
    {
      "epoch": "2026-04-21T13:41:44.859840Z",
      "apogee_km": 484.00042318249143,
      "perigee_km": 482.38252192866275,
      "latitude_deg": -2.4844733922092514e-05,
      "longitude_deg": 147.94806431126256,
      "height_km": 482.66474972604755,
      "semi_major_axis_km": 6861.328472555577,
      "eccentricity": 0.0001179,
      "inclination_deg": 43.0042,
      "raan_deg": 203.0297,
      "arg_perigee_deg": 292.0492,
      "mean_anomaly_deg": 68.0234,
      "mean_motion_rev_day": 15.27532453
    },
    {
      "epoch": "2026-04-22T13:14:07.355328Z",
      "apogee_km": 483.8159899832208,
      "perigee_km": 482.36003803524727,
      "latitude_deg": -4.170720525991973e-05,
      "longitude_deg": 148.34747638056683,
      "height_km": 482.794775608022,
      "semi_major_axis_km": 6861.225014009234,
      "eccentricity": 0.0001061,
      "inclination_deg": 43.0031,
      "raan_deg": 197.4896,
      "arg_perigee_deg": 275.5186,
      "mean_anomaly_deg": 84.5544,
      "mean_motion_rev_day": 15.27567003
    },
    {
      "epoch": "2026-04-23T12:46:26.489856Z",
      "apogee_km": 483.8563459815705,
      "perigee_km": 482.20102114875317,
      "latitude_deg": 2.108763442296349e-05,
      "longitude_deg": 148.76211616195528,
      "height_km": 482.6550475115157,
      "semi_major_axis_km": 6861.165683565161,
      "eccentricity": 0.00012063,
      "inclination_deg": 43.0032,
      "raan_deg": 191.9506,
      "arg_perigee_deg": 280.4791,
      "mean_anomaly_deg": 79.5925,
      "mean_motion_rev_day": 15.27586817
    },
    {
      "epoch": "2026-04-24T12:18:47.233152Z",
      "apogee_km": 484.1663534900663,
      "perigee_km": 481.9241191352394,
      "latitude_deg": 3.561863488896245e-05,
      "longitude_deg": 149.17028366587687,
      "height_km": 482.5384513134738,
      "semi_major_axis_km": 6861.182236312653,
      "eccentricity": 0.0001634,
      "inclination_deg": 43.0043,
      "raan_deg": 186.4119,
      "arg_perigee_deg": 284.6819,
      "mean_anomaly_deg": 75.3852,
      "mean_motion_rev_day": 15.27581289
    },
    {
      "epoch": "2026-04-25T11:51:08.354016Z",
      "apogee_km": 483.5422307393237,
      "perigee_km": 482.5514757909132,
      "latitude_deg": -1.7501408719564439e-06,
      "longitude_deg": 149.57461914942135,
      "height_km": 482.95766383678733,
      "semi_major_axis_km": 6861.183853265118,
      "eccentricity": 7.22e-05,
      "inclination_deg": 43.0017,
      "raan_deg": 180.871,
      "arg_perigee_deg": 254.2391,
      "mean_anomaly_deg": 105.8381,
      "mean_motion_rev_day": 15.27580749
    },
    {
      "epoch": "2026-04-26T05:06:51.661152Z",
      "apogee_km": 483.66540571382484,
      "perigee_km": 482.45563936665076,
      "latitude_deg": 8.088803103509796e-06,
      "longitude_deg": -114.12504304117947,
      "height_km": 482.70865781795595,
      "semi_major_axis_km": 6861.1975225402375,
      "eccentricity": 8.816e-05,
      "inclination_deg": 43.0023,
      "raan_deg": 176.8107,
      "arg_perigee_deg": 282.2531,
      "mean_anomaly_deg": 77.8222,
      "mean_motion_rev_day": 15.27576184
    },
    {
      "epoch": "2026-04-27T04:39:12.708576Z",
      "apogee_km": 483.49781188746056,
      "perigee_km": 482.6286350431519,
      "latitude_deg": 6.847409248288786e-06,
      "longitude_deg": -113.72096113326438,
      "height_km": 483.0101203539284,
      "semi_major_axis_km": 6861.2002234653055,
      "eccentricity": 6.334e-05,
      "inclination_deg": 43.0004,
      "raan_deg": 171.2692,
      "arg_perigee_deg": 246.8437,
      "mean_anomaly_deg": 113.2348,
      "mean_motion_rev_day": 15.27575282
    },
    {
      "epoch": "2026-04-28T19:53:07.806912Z",
      "apogee_km": 483.7004940018296,
      "perigee_km": 482.4503810957085,
      "latitude_deg": -5.622535319397054e-05,
      "longitude_deg": 6.9585966274598485,
      "height_km": 482.68850534386456,
      "semi_major_axis_km": 6861.212437548769,
      "eccentricity": 9.11e-05,
      "inclination_deg": 43.0015,
      "raan_deg": 162.0396,
      "arg_perigee_deg": 285.1524,
      "mean_anomaly_deg": 74.9226,
      "mean_motion_rev_day": 15.27571203
    },
    {
      "epoch": "2026-04-29T19:25:28.451712Z",
      "apogee_km": 483.82583589512797,
      "perigee_km": 482.3108817518996,
      "latitude_deg": 2.358114110823151e-05,
      "longitude_deg": 7.367146886862775,
      "height_km": 482.6934518152232,
      "semi_major_axis_km": 6861.205358823513,
      "eccentricity": 0.0001104,
      "inclination_deg": 43.0026,
      "raan_deg": 156.5008,
      "arg_perigee_deg": 281.5487,
      "mean_anomaly_deg": 78.5241,
      "mean_motion_rev_day": 15.27573567
    },
    {
      "epoch": "2026-04-30T09:32:52.463616Z",
      "apogee_km": 483.81316943599813,
      "perigee_km": 482.2849088576386,
      "latitude_deg": -1.5993091706505837e-05,
      "longitude_deg": 151.61323012356772,
      "height_km": 482.6828410606626,
      "semi_major_axis_km": 6861.186039146818,
      "eccentricity": 0.00011137,
      "inclination_deg": 43.0022,
      "raan_deg": 153.177,
      "arg_perigee_deg": 280.7789,
      "mean_anomaly_deg": 79.2937,
      "mean_motion_rev_day": 15.27580019
    },
    {
      "epoch": "2026-05-02T08:37:34.447008Z",
      "apogee_km": 483.8132358395851,
      "perigee_km": 482.3037728286308,
      "latitude_deg": -2.307330474065175e-05,
      "longitude_deg": 152.42575108606016,
      "height_km": 482.6507206763524,
      "semi_major_axis_km": 6861.195504334108,
      "eccentricity": 0.00011,
      "inclination_deg": 43.0008,
      "raan_deg": 142.0979,
      "arg_perigee_deg": 284.1357,
      "mean_anomaly_deg": 75.9372,
      "mean_motion_rev_day": 15.27576858
    },
    {
      "epoch": "2026-05-03T08:09:55.238688Z",
      "apogee_km": 483.7503238696572,
      "perigee_km": 482.3662835529922,
      "latitude_deg": 8.941012125690056e-06,
      "longitude_deg": 152.83403392602278,
      "height_km": 482.75129674229,
      "semi_major_axis_km": 6861.195303711324,
      "eccentricity": 0.00010086,
      "inclination_deg": 43.0015,
      "raan_deg": 136.5595,
      "arg_perigee_deg": 276.9341,
      "mean_anomaly_deg": 83.1396,
      "mean_motion_rev_day": 15.27576925
    }
  ]
}